IXPE                    
1 49954U 21121A   24232.25002315  .00013170  00000+0  98241-3 0  9997
2 49954   0.2290 285.4285 0009501 135.1569 148.8208 14.99225887147373
